#aV2014  8 18  0  0  0.00000000     288 DD+AD WGS84 FIT  NGA
## 1806  86400.00000000   300.00000000 56887 0.0000000000000
+   32     1  2  3  4  5  6  7  8  9 10 11 12 13 14 15 16 17
+         18 19 20 21 22 23 24 25 26 27 28 29 30 31 32  0  0
+          0  0  0  0  0  0  0  0  0  0  0  0  0  0  0  0  0
+          0  0  0  0  0  0  0  0  0  0  0  0  0  0  0  0  0
+          0  0  0  0  0  0  0  0  0  0  0  0  0  0  0  0  0
++         2  2  2  2  2  2  2  2  2  2  2  2  2  2  2  2  2
++         2  2  2  2  2  2  2  2  2  2  2  2  2  2  2  0  0
++         0  0  0  0  0  0  0  0  0  0  0  0  0  0  0  0  0
++         0  0  0  0  0  0  0  0  0  0  0  0  0  0  0  0  0
++         0  0  0  0  0  0  0  0  0  0  0  0  0  0  0  0  0
%c cc cc ccc ccc cccc cccc cccc cccc ccccc ccccc ccccc ccccc
%c cc cc ccc ccc cccc cccc cccc cccc ccccc ccccc ccccc ccccc
%f  0.0000000  0.000000000  0.00000000000  0.000000000000000
%f  0.0000000  0.000000000  0.00000000000  0.000000000000000
%i    0    0    0    0      0      0      0      0         0
%i    0    0    0    0      0      0      0      0         0
/*      NGA, ST. LOUIS,MO.                                  
/*   EPHEMERIS COMPUTED FROM  1 DAYS OF DATA                
/*   EPOCHA SMOOTHER                                       
/* CCCCCCCCCCCCCCCCCCCCCCCCCCCCCCCCCCCCCCCCCCCCCCCCCCCCCCCCC
*  2014  8 18  0  5  0.00000000
P  1   9776.246878  13580.200572 -20700.647448     19.787982                    
V  1 -25961.645941   3278.122950  -9979.999050      0.006426                    
P  2  15583.352866 -14004.756382  16339.537523    513.176329                    
V  2  20591.091311   -114.182351 -20597.176248      0.021955                    
P  3  -3999.215864  25939.527113  -4156.192162    405.242484                    
V  3  -4598.236573   3531.424416  30760.511200      0.049670                    
P  4  23385.274609   5976.487960 -11640.629147     -0.063158                    
V  4 -13895.591752   4253.267475 -26193.730290     -0.001496                    
P  5   4507.835644 -17503.074126  19368.279582   -348.360354                    
V  5  15799.761545  19143.583592  13764.342367      0.034724                    
P  6  24796.857382  -7038.697468   6363.387822     -4.485681                    
V  6   8333.718174   1842.154973 -30390.400548     -0.009012                    
P  7  22100.639013   7318.992937  13190.422825    381.324247                    
V  7 -16280.103605   2922.893655  25470.752704      0.042938                    
P  8  23939.815349   7116.747301  10068.840174     15.192268                    
V  8 -12305.064268    681.387361  28701.973737      0.001124                    
P  9 -10792.289737 -12344.137627 -21251.367341     16.674472                    
V  9  11356.039341 -23840.814040   8062.745355      0.044471                    
P 10  16767.628104  -1779.191303  20263.687395   -138.312803                    
V 10  14476.307013  22201.096140  -9441.195121     -0.016010                    
P 11   2599.342284  17112.585903 -20631.742896   -514.158246                    
V 11 -23541.612723   9647.180322   5358.108121     -0.029491                    
P 12  -9664.521609 -23704.819742  -7563.154960    225.661785                    
V 12   6561.800860   6954.091815 -30283.551658      0.026016                    
P 13   9270.315243  12630.141710  21296.977553    -32.100112                    
V 13 -14388.541950  23227.925361  -7636.279713     -0.039132                    
P 14 -17887.119018   6864.098461 -18097.038820    143.787592                    
V 14   9854.157467 -21376.418768 -17773.303830     -0.036500                    
P 15   1402.751449 -24209.751628 -10537.607294   -197.505250                    
V 15   8151.659362 -11212.628873  27287.922792     -0.022177                    
P 16  -4846.622280  16766.282615  19846.884858   -200.774499                    
V 16 -14458.343586 -20876.291000  14409.019541      0.023945                    
P 17  17566.032715  -6930.504345 -18321.050001   -117.260592                    
V 17  -9336.569937  22017.285792 -17259.795289     -0.027795                    
P 18 -19969.396673 -14266.098491 -10087.006980    338.764305                    
V 18  -5311.143709 -12785.669379  27018.546109      0.025076                    
P 19  -6734.913495  23981.820403  -8694.752116   -474.043010                    
V 19  -7796.877112   8157.737965  29513.611641     -0.019553                    
P 20  14253.187462  22118.378198  -4069.859026    223.235038                    
V 20  -6042.261909  -1445.743499 -30362.042069      0.043609                    
P 21 -24840.098954  -4433.552408   9611.861529   -378.945856                    
V 21  10838.482067  -4030.425680  27630.158587     -0.021164                    
P 22 -18524.529211  -1139.869878 -18838.306966    259.822274                    
V 22 -13080.499298 -20748.758790  13791.884598      0.034801                    
P 23   4099.767562  19966.696481  16919.209467    -45.314910                    
V 23 -10956.419561  18566.833778 -19822.530567     -0.029440                    
P 24  -5349.014454 -14671.096362 -21513.648146    -33.687886                    
V 24  27063.919815  -3412.986847  -4308.223813     -0.006603                    
P 25 -17419.009194 -19783.501901   3718.756181     23.453250                    
V 25  -1045.387471  -5161.455177 -31556.981052     -0.006571                    
P 26  12183.267344 -23403.209271  -1633.645078    -23.402298                    
V 26   2917.890230    183.537014  32148.041460     -0.130528                    
P 27 -12531.296683  23202.936869   2835.135102      6.953088                    
V 27  -1030.803020  -4431.510622  31603.012633      0.031913                    
P 28  18128.088659   7229.257090 -17471.023485    377.913730                    
V 28  11253.383437  20436.689199  19343.517499      0.027623                    
P 29 -10161.083915 -12187.189315  21334.339068    554.338685                    
V 29  12858.873921 -23732.737400  -7400.269579      0.025087                    
P 30  26364.338873   1544.398421   3058.946999    -49.901019                    
V 30  -3819.516469   2908.971821  31361.306157     -0.054324                    
P 31 -24324.438199   7365.465151   8393.784067    332.615678                    
V 31 -10445.266438  -1103.308007 -29540.346338     -0.003091                    
P 32   2119.481364  22840.141617 -13800.280358   -360.557429                    
V 32 -10784.384496 -13837.531465 -23942.983884      0.084338                    
EOF
